{
"type": "FeatureCollection",
"name": "merge_data",
"crs": { "type": "name", "properties": { "name": "urn:ogc:def:crs:OGC:1.3:CRS84" } },
"features": [
{ "type": "Feature", "properties": { "name": "The Church of Jesus Christ of Latter-day Saints", "amenity": "place_of_worship" }, "geometry": { "type": "Point", "coordinates": [ 120.969269327062236, 14.62391139080783 ] } },
{ "type": "Feature", "properties": { "name": "Nihongo Center", "amenity": "school" }, "geometry": { "type": "Point", "coordinates": [ 120.98821508606251, 14.603558076177713 ] } },
{ "type": "Feature", "properties": { "name": "Jose Fabella Memorial Hospital", "amenity": "hospital" }, "geometry": { "type": "Point", "coordinates": [ 120.984274188527337, 14.606184044413235 ] } },
{ "type": "Feature", "properties": { "name": "Doña Teodora Alonzo High School", "amenity": "school" }, "geometry": { "type": "Point", "coordinates": [ 120.980364572296168, 14.612760200833156 ] } },
{ "type": "Feature", "properties": { "name": "Francisco Balagtas Elementary School", "amenity": "school" }, "geometry": { "type": "Point", "coordinates": [ 120.980901016866511, 14.612747477754635 ] } },
{ "type": "Feature", "properties": { "name": "Gregorio del Pilar Elementary School Centex", "amenity": "school" }, "geometry": { "type": "Point", "coordinates": [ 120.975709964573653, 14.606942026681779 ] } },
{ "type": "Feature", "properties": { "name": "General Gregorio del Pilar Elementary School", "amenity": "school" }, "geometry": { "type": "Point", "coordinates": [ 120.975488145694214, 14.606449186764278 ] } },
{ "type": "Feature", "properties": { "name": "Pio del Pilar Elementary School", "amenity": "school" }, "geometry": { "type": "Point", "coordinates": [ 121.004085078447105, 14.600464553262382 ] } },
{ "type": "Feature", "properties": { "name": "Antonio A. Maceda Integrated School", "amenity": "school" }, "geometry": { "type": "Point", "coordinates": [ 121.011625245209743, 14.603459301127247 ] } },
{ "type": "Feature", "properties": { "name": "P. Burgos Elementary School", "amenity": "school" }, "geometry": { "type": "Point", "coordinates": [ 121.010614059080268, 14.603435890036815 ] } },
{ "type": "Feature", "properties": { "name": "The Church of Jesus Christ of Latter-day Saints", "amenity": "place_of_worship" }, "geometry": { "type": "Point", "coordinates": [ 120.979461349877852, 14.626923891320818 ] } },
{ "type": "Feature", "properties": { "name": "Holy Trinity Academy", "amenity": "school" }, "geometry": { "type": "Point", "coordinates": [ 121.002680030287763, 14.610757599090546 ] } },
{ "type": "Feature", "properties": { "name": "Carlos P. Garcia High School", "amenity": "school" }, "geometry": { "type": "Point", "coordinates": [ 121.00285887148145, 14.594853912077618 ] } },
{ "type": "Feature", "properties": { "name": "Shakey's Pizza", "amenity": "restaurant" }, "geometry": { "type": "Point", "coordinates": [ 121.024690401762626, 14.594272789320987 ] } },
{ "type": "Feature", "properties": { "name": "Elpidio Quirino Senior High School", "amenity": "school" }, "geometry": { "type": "Point", "coordinates": [ 121.016108474232638, 14.595774377049729 ] } },
{ "type": "Feature", "properties": { "name": "Bacood Elementary School", "amenity": "school" }, "geometry": { "type": "Point", "coordinates": [ 121.016860550132876, 14.595298605458376 ] } },
{ "type": "Feature", "properties": { "name": "Quiapo Church", "amenity": "place_of_worship" }, "geometry": { "type": "Point", "coordinates": [ 120.983786312313356, 14.598817350291123 ] } },
{ "type": "Feature", "properties": { "name": "Ramon Q. Avancena High School", "amenity": "school" }, "geometry": { "type": "Point", "coordinates": [ 120.989305001309575, 14.593752385124162 ] } },
{ "type": "Feature", "properties": { "name": "M. Araullo High School", "amenity": "school" }, "geometry": { "type": "Point", "coordinates": [ 120.985239274647995, 14.58334451729459 ] } },
{ "type": "Feature", "properties": { "name": "P. Gomez Elementary School", "amenity": "school" }, "geometry": { "type": "Point", "coordinates": [ 120.985428942434183, 14.608534342031042 ] } },
{ "type": "Feature", "properties": { "name": "Paco Catholic School", "amenity": "school" }, "geometry": { "type": "Point", "coordinates": [ 120.994414655471772, 14.579214804553228 ] } },
{ "type": "Feature", "properties": { "name": "Justo Lukban Elementary School", "amenity": "school" }, "geometry": { "type": "Point", "coordinates": [ 120.993059142290988, 14.581374011568903 ] } },
{ "type": "Feature", "properties": { "name": "Manila Science High School", "amenity": "school" }, "geometry": { "type": "Point", "coordinates": [ 120.986356734438601, 14.580651928206565 ] } },
{ "type": "Feature", "properties": { "name": "Bagong Diwa Elementary School", "amenity": "school" }, "geometry": { "type": "Point", "coordinates": [ 121.005361154386677, 14.588270592673743 ] } },
{ "type": "Feature", "properties": { "name": "Padre Jacinto Zamora Elementary School", "amenity": "school" }, "geometry": { "type": "Point", "coordinates": [ 121.002698880087962, 14.588357623302002 ] } },
{ "type": "Feature", "properties": { "name": "Tomas Earnshaw Elementary School", "amenity": "school" }, "geometry": { "type": "Point", "coordinates": [ 121.018679454894212, 14.58791779070148 ] } },
{ "type": "Feature", "properties": { "name": "Mataas na Paaralang Ramon Magsaysay", "amenity": "school" }, "geometry": { "type": "Point", "coordinates": [ 120.993115507198937, 14.611101319278712 ] } },
{ "type": "Feature", "properties": { "name": "Dr. Celedonio A. Salvador Elementary School", "amenity": "school" }, "geometry": { "type": "Point", "coordinates": [ 120.996284421657435, 14.582409148620542 ] } },
{ "type": "Feature", "properties": { "name": "Manuel A. Roxas High School", "amenity": "school" }, "geometry": { "type": "Point", "coordinates": [ 120.998601673221017, 14.582320566664828 ] } },
{ "type": "Feature", "properties": { "name": "Librada Avelino Elementary School", "amenity": "school" }, "geometry": { "type": "Point", "coordinates": [ 120.972024673969912, 14.631186574466451 ] } },
{ "type": "Feature", "properties": { "name": "Lokal ng Tondo", "amenity": "place_of_worship" }, "geometry": { "type": "Point", "coordinates": [ 120.968842070554459, 14.610491554370089 ] } },
{ "type": "Feature", "properties": { "name": "Santo Niño de Tondo Parish Church", "amenity": "place_of_worship" }, "geometry": { "type": "Point", "coordinates": [ 120.967423601691209, 14.607911731742252 ] } },
{ "type": "Feature", "properties": { "name": "Santa Cruz Church", "amenity": "place_of_worship" }, "geometry": { "type": "Point", "coordinates": [ 120.980440303653225, 14.599301823873727 ] } },
{ "type": "Feature", "properties": { "name": "Gregorio Perfecto High School", "amenity": "school" }, "geometry": { "type": "Point", "coordinates": [ 120.970994589887056, 14.610281515135956 ] } },
{ "type": "Feature", "properties": { "name": "Malate Church", "amenity": "place_of_worship" }, "geometry": { "type": "Point", "coordinates": [ 120.984652139436434, 14.5692848032127 ] } },
{ "type": "Feature", "properties": { "name": "Jollibee", "amenity": "fast_food" }, "geometry": { "type": "Point", "coordinates": [ 120.98455485, 14.55854335 ] } },
{ "type": "Feature", "properties": { "name": "Iglesia ni Cristo - Lokal ng Tayuman", "amenity": "place_of_worship" }, "geometry": { "type": "Point", "coordinates": [ 120.979515655685262, 14.615609451016629 ] } },
{ "type": "Feature", "properties": { "name": "Cafe Adriatico", "amenity": "restaurant" }, "geometry": { "type": "Point", "coordinates": [ 120.986073184149532, 14.57043614729224 ] } },
{ "type": "Feature", "properties": { "name": "Coffee Bean & Tea Leaf", "amenity": "cafe" }, "geometry": { "type": "Point", "coordinates": [ 120.98557690765125, 14.570935066528575 ] } },
{ "type": "Feature", "properties": { "name": "Tanabe", "amenity": "restaurant" }, "geometry": { "type": "Point", "coordinates": [ 120.986130825391754, 14.570591469844347 ] } },
{ "type": "Feature", "properties": { "name": "Silber", "amenity": "restaurant" }, "geometry": { "type": "Point", "coordinates": [ 120.98707192755549, 14.572283069339617 ] } },
{ "type": "Feature", "properties": { "name": "Loo Kal", "amenity": "restaurant" }, "geometry": { "type": "Point", "coordinates": [ 120.987186534019585, 14.572345191287752 ] } },
{ "type": "Feature", "properties": { "name": "Moscrap", "amenity": "restaurant" }, "geometry": { "type": "Point", "coordinates": [ 120.98661294999998, 14.5720188 ] } },
{ "type": "Feature", "properties": { "name": "Relatives", "amenity": "restaurant" }, "geometry": { "type": "Point", "coordinates": [ 120.986528, 14.5719759 ] } },
{ "type": "Feature", "properties": { "name": "Casa Armas", "amenity": "restaurant" }, "geometry": { "type": "Point", "coordinates": [ 120.985814643494379, 14.571861018005754 ] } },
{ "type": "Feature", "properties": { "name": "Korean Village", "amenity": "restaurant" }, "geometry": { "type": "Point", "coordinates": [ 120.985846416223907, 14.571512845424875 ] } },
{ "type": "Feature", "properties": { "name": "Malate Catholic School", "amenity": "school" }, "geometry": { "type": "Point", "coordinates": [ 120.985417345099279, 14.569310422092085 ] } },
{ "type": "Feature", "properties": { "name": "Aujen's Coffee", "amenity": "cafe" }, "geometry": { "type": "Point", "coordinates": [ 120.974225285129009, 14.591737883657405 ] } },
{ "type": "Feature", "properties": { "name": "McDonald's", "amenity": "fast_food" }, "geometry": { "type": "Point", "coordinates": [ 120.992035804024056, 14.570545495863385 ] } },
{ "type": "Feature", "properties": { "name": "Ellinwood Malate Church", "amenity": "place_of_worship" }, "geometry": { "type": "Point", "coordinates": [ 120.987624615697229, 14.574792822197335 ] } },
{ "type": "Feature", "properties": { "name": "New Millennium Evangelical Church", "amenity": "place_of_worship" }, "geometry": { "type": "Point", "coordinates": [ 120.988198989338798, 14.574019561391474 ] } },
{ "type": "Feature", "properties": { "name": "Ang Dating Daan", "amenity": "place_of_worship" }, "geometry": { "type": "Point", "coordinates": [ 120.983529552364828, 14.597089059249976 ] } },
{ "type": "Feature", "properties": { "name": "Manila High School", "amenity": "school" }, "geometry": { "type": "Point", "coordinates": [ 120.978495687911447, 14.589054199653436 ] } },
{ "type": "Feature", "properties": { "name": "Central United Methodist Church", "amenity": "place_of_worship" }, "geometry": { "type": "Point", "coordinates": [ 120.983561695165278, 14.582715413231989 ] } },
{ "type": "Feature", "properties": { "name": "Cathedral of Praise", "amenity": "place_of_worship" }, "geometry": { "type": "Point", "coordinates": [ 120.9859916658027, 14.581308961594292 ] } },
{ "type": "Feature", "properties": { "name": "Popeyes", "amenity": "fast_food" }, "geometry": { "type": "Point", "coordinates": [ 120.985422851312421, 14.58187855339726 ] } },
{ "type": "Feature", "properties": { "name": "Medical Center Manila", "amenity": "hospital" }, "geometry": { "type": "Point", "coordinates": [ 120.985446363791837, 14.582430494686507 ] } },
{ "type": "Feature", "properties": { "name": "Ermita Shrine", "amenity": "place_of_worship" }, "geometry": { "type": "Point", "coordinates": [ 120.980062312694045, 14.578801134118711 ] } },
{ "type": "Feature", "properties": { "name": "Nuestra Señora De Guia Parish Church", "amenity": "place_of_worship" }, "geometry": { "type": "Point", "coordinates": [ 120.979997069190915, 14.578844394007504 ] } },
{ "type": "Feature", "properties": { "name": "AMOSUP Seamen's Hospital", "amenity": "hospital" }, "geometry": { "type": "Point", "coordinates": [ 120.977635544223673, 14.58747299211772 ] } },
{ "type": "Feature", "properties": { "name": "LPU Culinary Institute", "amenity": "school" }, "geometry": { "type": "Point", "coordinates": [ 120.978497470930193, 14.589739737753659 ] } },
{ "type": "Feature", "properties": { "name": "San Agustin Church", "amenity": "place_of_worship" }, "geometry": { "type": "Point", "coordinates": [ 120.975344472530054, 14.588916312528163 ] } },
{ "type": "Feature", "properties": { "name": "Harbor View", "amenity": "restaurant" }, "geometry": { "type": "Point", "coordinates": [ 120.974356588612622, 14.577796975235518 ] } },
{ "type": "Feature", "properties": { "name": "Manila Doctors Hospital", "amenity": "hospital" }, "geometry": { "type": "Point", "coordinates": [ 120.982789173633151, 14.582033349400366 ] } },
{ "type": "Feature", "properties": { "name": "Fortune Mansion Seafoods Restaurant", "amenity": "restaurant" }, "geometry": { "type": "Point", "coordinates": [ 120.98120105000001, 14.5813459 ] } },
{ "type": "Feature", "properties": { "name": "Ermita Catholic School", "amenity": "school" }, "geometry": { "type": "Point", "coordinates": [ 120.980049300000019, 14.57842825 ] } },
{ "type": "Feature", "properties": { "name": "Cowboy Grill", "amenity": "restaurant" }, "geometry": { "type": "Point", "coordinates": [ 120.980705289763165, 14.57831029309961 ] } },
{ "type": "Feature", "properties": { "name": "Philippine General Hospital", "amenity": "hospital" }, "geometry": { "type": "Point", "coordinates": [ 120.985612314227609, 14.577814925780746 ] } },
{ "type": "Feature", "properties": { "name": "Cosmopolitan Church", "amenity": "place_of_worship" }, "geometry": { "type": "Point", "coordinates": [ 120.98687746165507, 14.579075671568146 ] } },
{ "type": "Feature", "properties": { "name": "McDonald's", "amenity": "fast_food" }, "geometry": { "type": "Point", "coordinates": [ 120.985348353993587, 14.581950752507407 ] } },
{ "type": "Feature", "properties": { "name": "Dr. A. Albert Elementary School", "amenity": "school" }, "geometry": { "type": "Point", "coordinates": [ 120.996664150125227, 14.618180781942845 ] } },
{ "type": "Feature", "properties": { "name": "Laong Laan Elementary School", "amenity": "school" }, "geometry": { "type": "Point", "coordinates": [ 120.996172333271559, 14.620468304931427 ] } },
{ "type": "Feature", "properties": { "name": "Esteban Abada High School", "amenity": "school" }, "geometry": { "type": "Point", "coordinates": [ 120.994216787510723, 14.621917636791585 ] } },
{ "type": "Feature", "properties": { "name": "Our Lady of Peñafranca Parish", "amenity": "place_of_worship" }, "geometry": { "type": "Point", "coordinates": [ 120.99791205664215, 14.585038311061137 ] } },
{ "type": "Feature", "properties": { "name": "Binondo Church", "amenity": "place_of_worship" }, "geometry": { "type": "Point", "coordinates": [ 120.974695446557604, 14.600199154213568 ] } },
{ "type": "Feature", "properties": { "name": "Jose R. Reyes Memorial Medical Center", "amenity": "hospital" }, "geometry": { "type": "Point", "coordinates": [ 120.982019917811826, 14.614129461046781 ] } },
{ "type": "Feature", "properties": { "name": "Saint Anthony Shrine", "amenity": "place_of_worship" }, "geometry": { "type": "Point", "coordinates": [ 120.993412786451941, 14.602846575191572 ] } },
{ "type": "Feature", "properties": { "name": "Archdiocesan Shrine of Our Lady of Loreto", "amenity": "place_of_worship" }, "geometry": { "type": "Point", "coordinates": [ 120.993593910847423, 14.603409898938509 ] } },
{ "type": "Feature", "properties": { "name": "San Sebastian Church", "amenity": "place_of_worship" }, "geometry": { "type": "Point", "coordinates": [ 120.988994980077877, 14.599683066558551 ] } },
{ "type": "Feature", "properties": { "name": "Claro M. Recto High School", "amenity": "school" }, "geometry": { "type": "Point", "coordinates": [ 120.994752168248183, 14.599852504606288 ] } },
{ "type": "Feature", "properties": { "name": "Abbey of Our Lady of Montserrat", "amenity": "place_of_worship" }, "geometry": { "type": "Point", "coordinates": [ 120.992962835915307, 14.599115237417458 ] } },
{ "type": "Feature", "properties": { "name": "UE High School", "amenity": "school" }, "geometry": { "type": "Point", "coordinates": [ 120.990124015925204, 14.602716132559193 ] } },
{ "type": "Feature", "properties": { "name": "The Church of Jesus Christ of Latter-day Saints", "amenity": "place_of_worship" }, "geometry": { "type": "Point", "coordinates": [ 120.98825125539507, 14.604254074247073 ] } },
{ "type": "Feature", "properties": { "name": "San Miguel Church", "amenity": "place_of_worship" }, "geometry": { "type": "Point", "coordinates": [ 120.991807067206707, 14.592255969162665 ] } },
{ "type": "Feature", "properties": { "name": "Ospital ng Maynila", "amenity": "hospital" }, "geometry": { "type": "Point", "coordinates": [ 120.986434171674688, 14.563954805286654 ] } },
{ "type": "Feature", "properties": { "name": "Timoteo Paez Integrated School", "amenity": "school" }, "geometry": { "type": "Point", "coordinates": [ 120.967335636465805, 14.630503216645197 ] } },
{ "type": "Feature", "properties": { "name": "Jose P. Rizal Elementary School", "amenity": "school" }, "geometry": { "type": "Point", "coordinates": [ 120.971725236764286, 14.617338546805415 ] } },
{ "type": "Feature", "properties": { "name": "General Vicente Lim Elementary School", "amenity": "school" }, "geometry": { "type": "Point", "coordinates": [ 120.961192573434261, 14.624179623005892 ] } },
{ "type": "Feature", "properties": { "name": "Dr. Juan G. Nolasco High School", "amenity": "school" }, "geometry": { "type": "Point", "coordinates": [ 120.968223237874625, 14.619531710246232 ] } },
{ "type": "Feature", "properties": { "name": "A.V. Hernandez Elementary School", "amenity": "school" }, "geometry": { "type": "Point", "coordinates": [ 120.960736423987314, 14.61865448580526 ] } },
{ "type": "Feature", "properties": { "name": "Teodoro R. Yangco Elementary School", "amenity": "school" }, "geometry": { "type": "Point", "coordinates": [ 120.968529919729221, 14.616445093209405 ] } },
{ "type": "Feature", "properties": { "name": "Emilio Jacinto Elementary School", "amenity": "school" }, "geometry": { "type": "Point", "coordinates": [ 120.96608234558785, 14.620027783702836 ] } },
{ "type": "Feature", "properties": { "name": "Ospital ng Sampaloc", "amenity": "hospital" }, "geometry": { "type": "Point", "coordinates": [ 120.996731011529107, 14.607829984621144 ] } },
{ "type": "Feature", "properties": { "name": "Our Lady of Lourdes Hospital", "amenity": "hospital" }, "geometry": { "type": "Point", "coordinates": [ 121.02247766856425, 14.59493763773169 ] } },
{ "type": "Feature", "properties": { "name": "The Aristocrat Restaurant", "amenity": "restaurant" }, "geometry": { "type": "Point", "coordinates": [ 120.984111312936164, 14.568290844213557 ] } },
{ "type": "Feature", "properties": { "name": "Chowking", "amenity": "fast_food" }, "geometry": { "type": "Point", "coordinates": [ 120.992882004813353, 14.601724206658609 ] } },
{ "type": "Feature", "properties": { "name": "La Cocina de Tita Moning", "amenity": "restaurant" }, "geometry": { "type": "Point", "coordinates": [ 120.992481749999982, 14.5954964 ] } },
{ "type": "Feature", "properties": { "name": "Sky Garden", "amenity": "restaurant" }, "geometry": { "type": "Point", "coordinates": [ 120.984897275021027, 14.559376285743243 ] } },
{ "type": "Feature", "properties": { "name": "Vine Patio", "amenity": "restaurant" }, "geometry": { "type": "Point", "coordinates": [ 120.985352624796775, 14.559628081603297 ] } },
{ "type": "Feature", "properties": { "name": "Jose P. Laurel High School", "amenity": "school" }, "geometry": { "type": "Point", "coordinates": [ 120.97189166172835, 14.629524083146507 ] } },
{ "type": "Feature", "properties": { "name": "Aling Fely's", "amenity": "restaurant" }, "geometry": { "type": "Point", "coordinates": [ 120.995823499999986, 14.57830595 ] } },
{ "type": "Feature", "properties": { "name": "Fernando Maria Guerrero Elementary School", "amenity": "school" }, "geometry": { "type": "Point", "coordinates": [ 121.002534806031235, 14.578508631953921 ] } },
{ "type": "Feature", "properties": { "name": "Mariano Marcos Memorial High School", "amenity": "school" }, "geometry": { "type": "Point", "coordinates": [ 121.00743079363545, 14.582324474765409 ] } },
{ "type": "Feature", "properties": { "name": "O.B. Montessori Center Santa Ana", "amenity": "school" }, "geometry": { "type": "Point", "coordinates": [ 121.01038857807599, 14.581337371095501 ] } },
{ "type": "Feature", "properties": { "name": "St. Mary's Academy of Santa Ana", "amenity": "school" }, "geometry": { "type": "Point", "coordinates": [ 121.011292640545292, 14.580879942096097 ] } },
{ "type": "Feature", "properties": { "name": "Santa Ana Elementary School", "amenity": "school" }, "geometry": { "type": "Point", "coordinates": [ 121.011708863962312, 14.579733239878848 ] } },
{ "type": "Feature", "properties": { "name": "Asian Social Institute", "amenity": "school" }, "geometry": { "type": "Point", "coordinates": [ 120.988747795072314, 14.577477574573599 ] } },
{ "type": "Feature", "properties": { "name": "Khalsa Diwan Temple", "amenity": "place_of_worship" }, "geometry": { "type": "Point", "coordinates": [ 120.992915378238919, 14.584910480537001 ] } },
{ "type": "Feature", "properties": { "name": "Claro M. Recto Senior High School", "amenity": "school" }, "geometry": { "type": "Point", "coordinates": [ 120.996266920462674, 14.602203802675723 ] } },
{ "type": "Feature", "properties": { "name": "Christian Academy of Manila", "amenity": "school" }, "geometry": { "type": "Point", "coordinates": [ 121.000111287784918, 14.598082381703531 ] } },
{ "type": "Feature", "properties": { "name": "General L. Geronimo Elementary School", "amenity": "school" }, "geometry": { "type": "Point", "coordinates": [ 120.997772666796592, 14.605660094451434 ] } },
{ "type": "Feature", "properties": { "name": "Moises Salvador Elementary School", "amenity": "school" }, "geometry": { "type": "Point", "coordinates": [ 120.99820080536314, 14.605181570453718 ] } },
{ "type": "Feature", "properties": { "name": "Nazareth School of National University", "amenity": "school" }, "geometry": { "type": "Point", "coordinates": [ 120.996154437930784, 14.60462833384044 ] } },
{ "type": "Feature", "properties": { "name": "Trinidad Tecson Elementary School", "amenity": "school" }, "geometry": { "type": "Point", "coordinates": [ 120.997625243203302, 14.606118070266751 ] } },
{ "type": "Feature", "properties": { "name": "Holy Child Catholic School", "amenity": "school" }, "geometry": { "type": "Point", "coordinates": [ 120.967633805359796, 14.60745406727877 ] } },
{ "type": "Feature", "properties": { "name": "Isabelo de los Reyes School", "amenity": "school" }, "geometry": { "type": "Point", "coordinates": [ 120.96822916754833, 14.608630809129814 ] } },
{ "type": "Feature", "properties": { "name": "Justice Jose Abad Santos General Hospital", "amenity": "hospital" }, "geometry": { "type": "Point", "coordinates": [ 120.97201776947243, 14.597433372450771 ] } },
{ "type": "Feature", "properties": { "name": "Mary Johnston Hospital", "amenity": "hospital" }, "geometry": { "type": "Point", "coordinates": [ 120.966180070510191, 14.609043203908092 ] } },
{ "type": "Feature", "properties": { "name": "Rosauro Almario Elementary School", "amenity": "school" }, "geometry": { "type": "Point", "coordinates": [ 120.962402090768578, 14.602032909075453 ] } },
{ "type": "Feature", "properties": { "name": "Tondo High School", "amenity": "school" }, "geometry": { "type": "Point", "coordinates": [ 120.962206315115594, 14.611046330821456 ] } },
{ "type": "Feature", "properties": { "name": "Gat Andres Bonifacio Memorial Medical Center", "amenity": "hospital" }, "geometry": { "type": "Point", "coordinates": [ 120.964900103880538, 14.60110221329102 ] } },
{ "type": "Feature", "properties": { "name": "San Lorenzo Ruiz Academy", "amenity": "school" }, "geometry": { "type": "Point", "coordinates": [ 120.975225182449122, 14.600540575969566 ] } },
{ "type": "Feature", "properties": { "name": "Iglesia ni Cristo", "amenity": "place_of_worship" }, "geometry": { "type": "Point", "coordinates": [ 120.968840482159081, 14.610458059268302 ] } },
{ "type": "Feature", "properties": { "name": "Jose Corazon de Jesus Elementary School", "amenity": "school" }, "geometry": { "type": "Point", "coordinates": [ 120.969749439557333, 14.614426668218316 ] } },
{ "type": "Feature", "properties": { "name": "Magat Salamat Elementary School", "amenity": "school" }, "geometry": { "type": "Point", "coordinates": [ 120.966147935918059, 14.612184989691633 ] } },
{ "type": "Feature", "properties": { "name": "Manuel L. Quezon Elementary School", "amenity": "school" }, "geometry": { "type": "Point", "coordinates": [ 120.965241595614472, 14.61242461725227 ] } },
{ "type": "Feature", "properties": { "name": "St. Jude Parish Church", "amenity": "place_of_worship" }, "geometry": { "type": "Point", "coordinates": [ 120.995521877819215, 14.597006629208252 ] } },
{ "type": "Feature", "properties": { "name": "Grace Bible Church", "amenity": "place_of_worship" }, "geometry": { "type": "Point", "coordinates": [ 120.999716464395789, 14.597622886694538 ] } },
{ "type": "Feature", "properties": { "name": "Andres Bonifacio Elementary School", "amenity": "school" }, "geometry": { "type": "Point", "coordinates": [ 120.979303319932626, 14.617137924100833 ] } },
{ "type": "Feature", "properties": { "name": "Cayetano Arellano High School", "amenity": "school" }, "geometry": { "type": "Point", "coordinates": [ 120.979134251712949, 14.606112331768216 ] } },
{ "type": "Feature", "properties": { "name": "Golden Mosque", "amenity": "place_of_worship" }, "geometry": { "type": "Point", "coordinates": [ 120.9851259, 14.59577865 ] } },
{ "type": "Feature", "properties": { "name": "MLQU Monzon Hall", "amenity": "school" }, "geometry": { "type": "Point", "coordinates": [ 120.986415153329517, 14.599237599032341 ] } },
{ "type": "Feature", "properties": { "name": "Iglesia Ni Cristo, Lokal ng Quiapo", "amenity": "place_of_worship" }, "geometry": { "type": "Point", "coordinates": [ 120.988467920774056, 14.59812610295935 ] } },
{ "type": "Feature", "properties": { "name": "McDonald's", "amenity": "fast_food" }, "geometry": { "type": "Point", "coordinates": [ 120.984569572279611, 14.597682892521254 ] } },
{ "type": "Feature", "properties": { "name": "A. Mabini Elementary School", "amenity": "school" }, "geometry": { "type": "Point", "coordinates": [ 120.985819534758292, 14.601333234153934 ] } },
{ "type": "Feature", "properties": { "name": "Don Bosco School - Manila", "amenity": "school" }, "geometry": { "type": "Point", "coordinates": [ 121.021232381002932, 14.596305986017589 ] } },
{ "type": "Feature", "properties": { "name": "Geronimo Santiago Elementary School", "amenity": "school" }, "geometry": { "type": "Point", "coordinates": [ 120.989132462397322, 14.593134073569441 ] } },
{ "type": "Feature", "properties": { "name": "Cabel", "amenity": "restaurant" }, "geometry": { "type": "Point", "coordinates": [ 120.992844929967717, 14.593403846718292 ] } },
{ "type": "Feature", "properties": { "name": "Excelente Cooked Ham", "amenity": "fast_food" }, "geometry": { "type": "Point", "coordinates": [ 120.982739483098214, 14.597380322932034 ] } },
{ "type": "Feature", "properties": { "name": "Mang Inasal", "amenity": "fast_food" }, "geometry": { "type": "Point", "coordinates": [ 120.984249588289416, 14.598073667904917 ] } },
{ "type": "Feature", "properties": { "name": "Church of Christ at Cruzada", "amenity": "place_of_worship" }, "geometry": { "type": "Point", "coordinates": [ 120.990493366414313, 14.598016020961341 ] } },
{ "type": "Feature", "properties": { "name": "Ambos Mundos Restaurant", "amenity": "restaurant" }, "geometry": { "type": "Point", "coordinates": [ 120.981080974687188, 14.603430462274952 ] } },
{ "type": "Feature", "properties": { "name": "Guzman Institute Of Electronics", "amenity": "school" }, "geometry": { "type": "Point", "coordinates": [ 120.982722685066435, 14.602501217801706 ] } },
{ "type": "Feature", "properties": { "name": "Guzman Institute Of Technology", "amenity": "school" }, "geometry": { "type": "Point", "coordinates": [ 120.983086560963073, 14.602394148757643 ] } },
{ "type": "Feature", "properties": { "name": "Guzman Institute", "amenity": "school" }, "geometry": { "type": "Point", "coordinates": [ 120.984043, 14.60169485 ] } },
{ "type": "Feature", "properties": { "name": "Food Tree Express", "amenity": "fast_food" }, "geometry": { "type": "Point", "coordinates": [ 120.988598825011735, 14.602927587146592 ] } },
{ "type": "Feature", "properties": { "name": "Andok's", "amenity": "fast_food" }, "geometry": { "type": "Point", "coordinates": [ 120.985003634347862, 14.601700858192686 ] } },
{ "type": "Feature", "properties": { "name": "City of Zion Christrian Fellowship", "amenity": "place_of_worship" }, "geometry": { "type": "Point", "coordinates": [ 120.990871213002052, 14.600690079840573 ] } },
{ "type": "Feature", "properties": { "name": "UE Elementary and Secondary Laboratory Schools", "amenity": "school" }, "geometry": { "type": "Point", "coordinates": [ 120.990605149999979, 14.6018428 ] } },
{ "type": "Feature", "properties": { "name": "FEU Chapel", "amenity": "place_of_worship" }, "geometry": { "type": "Point", "coordinates": [ 120.986645849999988, 14.6043622 ] } },
{ "type": "Feature", "properties": { "name": "Jollibee", "amenity": "fast_food" }, "geometry": { "type": "Point", "coordinates": [ 120.992869534248783, 14.601314414346195 ] } },
{ "type": "Feature", "properties": { "name": "Hospicio de San Jose Chapel", "amenity": "place_of_worship" }, "geometry": { "type": "Point", "coordinates": [ 120.988275999976722, 14.590710928193197 ] } },
{ "type": "Feature", "properties": { "name": "Nuestra Señora Virgen del Rosario Chapel", "amenity": "place_of_worship" }, "geometry": { "type": "Point", "coordinates": [ 120.985186614984187, 14.594247896200516 ] } },
{ "type": "Feature", "properties": { "name": "The Nazarene Catholic School - Grade School", "amenity": "school" }, "geometry": { "type": "Point", "coordinates": [ 120.987251280146182, 14.598438254062421 ] } },
{ "type": "Feature", "properties": { "name": "The Nazarene Catholic School", "amenity": "school" }, "geometry": { "type": "Point", "coordinates": [ 120.987028878471122, 14.599236395320597 ] } },
{ "type": "Feature", "properties": { "name": "Nuestra Señora del Perpetua Socorro Parish", "amenity": "place_of_worship" }, "geometry": { "type": "Point", "coordinates": [ 120.991805749710849, 14.622186825436851 ] } },
{ "type": "Feature", "properties": { "name": "Delicious Restaurant", "amenity": "restaurant" }, "geometry": { "type": "Point", "coordinates": [ 120.980410951966334, 14.601047900514811 ] } },
{ "type": "Feature", "properties": { "name": "San Jose de Trozo Parish Church", "amenity": "place_of_worship" }, "geometry": { "type": "Point", "coordinates": [ 120.979516016670985, 14.608607230121818 ] } },
{ "type": "Feature", "properties": { "name": "Clinica Arellano", "amenity": "hospital" }, "geometry": { "type": "Point", "coordinates": [ 120.978748589450461, 14.605233964517309 ] } },
{ "type": "Feature", "properties": { "name": "United Evangelical Church of the Philippines", "amenity": "place_of_worship" }, "geometry": { "type": "Point", "coordinates": [ 120.978354745791037, 14.606077101498254 ] } },
{ "type": "Feature", "properties": { "name": "Uno High School", "amenity": "school" }, "geometry": { "type": "Point", "coordinates": [ 120.977293898537582, 14.610389802984541 ] } },
{ "type": "Feature", "properties": { "name": "St. Stephen's Parish", "amenity": "place_of_worship" }, "geometry": { "type": "Point", "coordinates": [ 120.978361426732661, 14.608360698659247 ] } },
{ "type": "Feature", "properties": { "name": "Saint Peter's Church", "amenity": "place_of_worship" }, "geometry": { "type": "Point", "coordinates": [ 120.974740618800226, 14.605120307139808 ] } },
{ "type": "Feature", "properties": { "name": "Vincent's Place Kambingan", "amenity": "restaurant" }, "geometry": { "type": "Point", "coordinates": [ 120.997645329476157, 14.599495595587083 ] } },
{ "type": "Feature", "properties": { "name": "Max's Restaurant", "amenity": "restaurant" }, "geometry": { "type": "Point", "coordinates": [ 120.997764269298258, 14.599339758590849 ] } },
{ "type": "Feature", "properties": { "name": "Juan Luna Elementary School", "amenity": "school" }, "geometry": { "type": "Point", "coordinates": [ 120.989816297906771, 14.605538940411817 ] } },
{ "type": "Feature", "properties": { "name": "John's Sip & Toast", "amenity": "cafe" }, "geometry": { "type": "Point", "coordinates": [ 120.989945680301886, 14.604792819526622 ] } },
{ "type": "Feature", "properties": { "name": "Mary Chiles General Hospital", "amenity": "hospital" }, "geometry": { "type": "Point", "coordinates": [ 120.98993685804983, 14.603188265543446 ] } },
{ "type": "Feature", "properties": { "name": "Shi Ong Hu Temple", "amenity": "place_of_worship" }, "geometry": { "type": "Point", "coordinates": [ 120.979131038532159, 14.602503523718239 ] } },
{ "type": "Feature", "properties": { "name": "Iglesia ni Cristo - Lokal ng San Nicolas", "amenity": "place_of_worship" }, "geometry": { "type": "Point", "coordinates": [ 120.970464920354942, 14.598164201589103 ] } },
{ "type": "Feature", "properties": { "name": "Mei Sum Tea House", "amenity": "restaurant" }, "geometry": { "type": "Point", "coordinates": [ 120.979390347339333, 14.60137168633316 ] } },
{ "type": "Feature", "properties": { "name": "Philippines Chinese Buddhist Temple", "amenity": "place_of_worship" }, "geometry": { "type": "Point", "coordinates": [ 120.97891839821547, 14.601735024924578 ] } },
{ "type": "Feature", "properties": { "name": "De Ocampo Memorial Medical Center", "amenity": "hospital" }, "geometry": { "type": "Point", "coordinates": [ 120.99962692705806, 14.599831271015892 ] } },
{ "type": "Feature", "properties": { "name": "KFC", "amenity": "fast_food" }, "geometry": { "type": "Point", "coordinates": [ 120.999655282999157, 14.60007424664294 ] } },
{ "type": "Feature", "properties": { "name": "Jack O's Burger", "amenity": "restaurant" }, "geometry": { "type": "Point", "coordinates": [ 120.992631677325221, 14.60726462623516 ] } },
{ "type": "Feature", "properties": { "name": "Jollibee", "amenity": "fast_food" }, "geometry": { "type": "Point", "coordinates": [ 120.989189346515801, 14.606722901348421 ] } },
{ "type": "Feature", "properties": { "name": "Tondo Baptist Church", "amenity": "place_of_worship" }, "geometry": { "type": "Point", "coordinates": [ 120.962299375243532, 14.601342709169142 ] } },
{ "type": "Feature", "properties": { "name": "McDonald's", "amenity": "fast_food" }, "geometry": { "type": "Point", "coordinates": [ 120.99422213885444, 14.563432317272152 ] } },
{ "type": "Feature", "properties": { "name": "Nuestra Señora de la Soledad Parish", "amenity": "place_of_worship" }, "geometry": { "type": "Point", "coordinates": [ 120.967464566850595, 14.601707200482583 ] } },
{ "type": "Feature", "properties": { "name": "Chun Chon Restaurant", "amenity": "restaurant" }, "geometry": { "type": "Point", "coordinates": [ 120.9864863, 14.6089123 ] } },
{ "type": "Feature", "properties": { "name": "Hidden Hatch Hookah Bar & Cafe", "amenity": "restaurant" }, "geometry": { "type": "Point", "coordinates": [ 120.9863425, 14.6076264 ] } },
{ "type": "Feature", "properties": { "name": "United Pentecostal Church Lerma", "amenity": "place_of_worship" }, "geometry": { "type": "Point", "coordinates": [ 120.9858121, 14.6050258 ] } },
{ "type": "Feature", "properties": { "name": "Jollibee", "amenity": "fast_food" }, "geometry": { "type": "Point", "coordinates": [ 120.987803705551499, 14.61140135912485 ] } },
{ "type": "Feature", "properties": { "name": "Central Seminary Chapel", "amenity": "place_of_worship" }, "geometry": { "type": "Point", "coordinates": [ 120.987589794967391, 14.609678136355686 ] } },
{ "type": "Feature", "properties": { "name": "Florentino Torres High School", "amenity": "school" }, "geometry": { "type": "Point", "coordinates": [ 120.972808933324202, 14.627358615094959 ] } },
{ "type": "Feature", "properties": { "name": "Our Lady of Assumption Parish Church", "amenity": "place_of_worship" }, "geometry": { "type": "Point", "coordinates": [ 120.989859432453045, 14.566465449243438 ] } },
{ "type": "Feature", "properties": { "name": "Juan Sumulong Elementary School", "amenity": "school" }, "geometry": { "type": "Point", "coordinates": [ 120.987691836678081, 14.616936500269833 ] } },
{ "type": "Feature", "properties": { "name": "Barangay 391 Chapel", "amenity": "place_of_worship" }, "geometry": { "type": "Point", "coordinates": [ 120.985193973157735, 14.601394770406573 ] } },
{ "type": "Feature", "properties": { "name": "Oar House", "amenity": "restaurant" }, "geometry": { "type": "Point", "coordinates": [ 120.9854766, 14.57315475 ] } },
{ "type": "Feature", "properties": { "name": "Starbucks", "amenity": "cafe" }, "geometry": { "type": "Point", "coordinates": [ 120.992241677810469, 14.566673808185209 ] } },
{ "type": "Feature", "properties": { "name": "Kim Sha Temple", "amenity": "place_of_worship" }, "geometry": { "type": "Point", "coordinates": [ 120.979933948347224, 14.601036272610907 ] } },
{ "type": "Feature", "properties": { "name": "Aurora A. Quezon Elementary School", "amenity": "school" }, "geometry": { "type": "Point", "coordinates": [ 120.989047059708128, 14.570677886627534 ] } },
{ "type": "Feature", "properties": { "name": "E. delos Santos Elementary School", "amenity": "school" }, "geometry": { "type": "Point", "coordinates": [ 120.992457839516504, 14.57591344184415 ] } },
{ "type": "Feature", "properties": { "name": "Iglesia ni Cristo - Lokal ng Paco", "amenity": "place_of_worship" }, "geometry": { "type": "Point", "coordinates": [ 120.991132420551196, 14.576704731241771 ] } },
{ "type": "Feature", "properties": { "name": "San Pancracio Parish Church", "amenity": "place_of_worship" }, "geometry": { "type": "Point", "coordinates": [ 120.984313340387658, 14.637275608407942 ] } },
{ "type": "Feature", "properties": { "name": "University of Santo Tomas Hospital", "amenity": "hospital" }, "geometry": { "type": "Point", "coordinates": [ 120.990185276078321, 14.611277263752026 ] } },
{ "type": "Feature", "properties": { "name": "Sacred Heart of Jesus Catholic School", "amenity": "school" }, "geometry": { "type": "Point", "coordinates": [ 121.011730789342323, 14.601675875633527 ] } },
{ "type": "Feature", "properties": { "name": "Sacred Heart of Jesus Sta. Mesa Parish Church", "amenity": "place_of_worship" }, "geometry": { "type": "Point", "coordinates": [ 121.01197011083417, 14.601547524524754 ] } },
{ "type": "Feature", "properties": { "name": "Grace Gospel Christian Church", "amenity": "place_of_worship" }, "geometry": { "type": "Point", "coordinates": [ 121.012215073881237, 14.602843834027823 ] } },
{ "type": "Feature", "properties": { "name": "IEMELIF", "amenity": "place_of_worship" }, "geometry": { "type": "Point", "coordinates": [ 121.011440336386542, 14.602656819855543 ] } },
{ "type": "Feature", "properties": { "name": "Maranatha Christian Academy", "amenity": "school" }, "geometry": { "type": "Point", "coordinates": [ 120.991023897410912, 14.624169387944207 ] } },
{ "type": "Feature", "properties": { "name": "Grace Gospel Church", "amenity": "place_of_worship" }, "geometry": { "type": "Point", "coordinates": [ 121.013103109452231, 14.603276500898193 ] } },
{ "type": "Feature", "properties": { "name": "Calvary Foursquare Church", "amenity": "place_of_worship" }, "geometry": { "type": "Point", "coordinates": [ 121.014685700000015, 14.60289005 ] } },
{ "type": "Feature", "properties": { "name": "Main Building", "amenity": "hospital" }, "geometry": { "type": "Point", "coordinates": [ 121.022560846022316, 14.594879000472901 ] } },
{ "type": "Feature", "properties": { "name": "Canteen", "amenity": "fast_food" }, "geometry": { "type": "Point", "coordinates": [ 121.022654639297301, 14.594577553696595 ] } },
{ "type": "Feature", "properties": { "name": "Baptist Bible Church", "amenity": "place_of_worship" }, "geometry": { "type": "Point", "coordinates": [ 121.016193525918609, 14.603914780383318 ] } },
{ "type": "Feature", "properties": { "name": "Saint Anthony de Padua Parish Church", "amenity": "place_of_worship" }, "geometry": { "type": "Point", "coordinates": [ 120.995629571494291, 14.571431012820081 ] } },
{ "type": "Feature", "properties": { "name": "Lokal ng Baseco, Iglesia ni Cristo", "amenity": "place_of_worship" }, "geometry": { "type": "Point", "coordinates": [ 120.961074667510061, 14.59354821434855 ] } },
{ "type": "Feature", "properties": { "name": "Joy Student Center", "amenity": "place_of_worship" }, "geometry": { "type": "Point", "coordinates": [ 120.97606923817429, 14.590187166030139 ] } },
{ "type": "Feature", "properties": { "name": "St. Peter the Apostle Parish", "amenity": "place_of_worship" }, "geometry": { "type": "Point", "coordinates": [ 120.99635025, 14.58371925 ] } },
{ "type": "Feature", "properties": { "name": "St. Jude Catholic School", "amenity": "school" }, "geometry": { "type": "Point", "coordinates": [ 120.996368039406178, 14.596347706853386 ] } },
{ "type": "Feature", "properties": { "name": "Manila Baptist Church", "amenity": "place_of_worship" }, "geometry": { "type": "Point", "coordinates": [ 120.986875031783782, 14.580089144895899 ] } },
{ "type": "Feature", "properties": { "name": "Lokal ng Magsaysay", "amenity": "place_of_worship" }, "geometry": { "type": "Point", "coordinates": [ 120.964034749999982, 14.61953805 ] } },
{ "type": "Feature", "properties": { "name": "San Pablo Apostol Church", "amenity": "place_of_worship" }, "geometry": { "type": "Point", "coordinates": [ 120.964931550000017, 14.6216403 ] } },
{ "type": "Feature", "properties": { "name": "Santo Niño de Pandacan Parish", "amenity": "place_of_worship" }, "geometry": { "type": "Point", "coordinates": [ 121.004111982188292, 14.593088439449104 ] } },
{ "type": "Feature", "properties": { "name": "Lokal ng Punta", "amenity": "place_of_worship" }, "geometry": { "type": "Point", "coordinates": [ 121.015775325593481, 14.588035245345433 ] } },
{ "type": "Feature", "properties": { "name": "Saint Pius X Parish Church", "amenity": "place_of_worship" }, "geometry": { "type": "Point", "coordinates": [ 121.000600573171965, 14.576948636127646 ] } },
{ "type": "Feature", "properties": { "name": "Andok's", "amenity": "fast_food" }, "geometry": { "type": "Point", "coordinates": [ 120.997934735337282, 14.614087205196848 ] } },
{ "type": "Feature", "properties": { "name": "San Roque De Sampaloc Parish", "amenity": "place_of_worship" }, "geometry": { "type": "Point", "coordinates": [ 120.998313214462158, 14.607562031385353 ] } },
{ "type": "Feature", "properties": { "name": "Perpetual Help Hospital", "amenity": "hospital" }, "geometry": { "type": "Point", "coordinates": [ 120.98834234661328, 14.613392099436087 ] } },
{ "type": "Feature", "properties": { "name": "Maria Clara Parish", "amenity": "place_of_worship" }, "geometry": { "type": "Point", "coordinates": [ 120.987356650803221, 14.613362248580135 ] } },
{ "type": "Feature", "properties": { "name": "Mariano Ponce Elementary School", "amenity": "school" }, "geometry": { "type": "Point", "coordinates": [ 120.981540813189127, 14.623822815895426 ] } },
{ "type": "Feature", "properties": { "name": "San Jose Manggagawa Parish", "amenity": "place_of_worship" }, "geometry": { "type": "Point", "coordinates": [ 120.978786635521999, 14.632063927663596 ] } },
{ "type": "Feature", "properties": { "name": "Sampaloc Bible Christian Community", "amenity": "place_of_worship" }, "geometry": { "type": "Point", "coordinates": [ 120.993588187326296, 14.609328868677727 ] } },
{ "type": "Feature", "properties": { "name": "Archdiocese Shrine of Espiritu Santo", "amenity": "place_of_worship" }, "geometry": { "type": "Point", "coordinates": [ 120.983178186253994, 14.617369217683084 ] } },
{ "type": "Feature", "properties": { "name": "United Church of Christ in the Philippines", "amenity": "place_of_worship" }, "geometry": { "type": "Point", "coordinates": [ 120.9710232, 14.6240871 ] } },
{ "type": "Feature", "properties": { "name": "St. John Bosco Parish Church", "amenity": "place_of_worship" }, "geometry": { "type": "Point", "coordinates": [ 120.96115867378515, 14.616682364240397 ] } },
{ "type": "Feature", "properties": { "name": "Kanto Freestyle Breakfast", "amenity": "restaurant" }, "geometry": { "type": "Point", "coordinates": [ 120.99521296029566, 14.565140470551439 ] } },
{ "type": "Feature", "properties": { "name": "Terry's Luncheonette and Chicken House", "amenity": "fast_food" }, "geometry": { "type": "Point", "coordinates": [ 120.981133118337752, 14.610896463841884 ] } },
{ "type": "Feature", "properties": { "name": "McDonald's", "amenity": "cafe" }, "geometry": { "type": "Point", "coordinates": [ 121.012573099999983, 14.5813479 ] } },
{ "type": "Feature", "properties": { "name": "Metropolitan International Christian Academy", "amenity": "school" }, "geometry": { "type": "Point", "coordinates": [ 121.012299309982268, 14.579343252723952 ] } },
{ "type": "Feature", "properties": { "name": "Wesley United Methodist Church", "amenity": "place_of_worship" }, "geometry": { "type": "Point", "coordinates": [ 121.01267104606346, 14.578875964314276 ] } },
{ "type": "Feature", "properties": { "name": "Sagrada Familia Parish", "amenity": "place_of_worship" }, "geometry": { "type": "Point", "coordinates": [ 121.007522517439028, 14.572374826064088 ] } },
{ "type": "Feature", "properties": { "name": "Hospital of the Infant Jesus Medical Center", "amenity": "hospital" }, "geometry": { "type": "Point", "coordinates": [ 120.989273681169266, 14.614013156075938 ] } },
{ "type": "Feature", "properties": { "name": "McDonald's", "amenity": "fast_food" }, "geometry": { "type": "Point", "coordinates": [ 120.994240160258002, 14.563520659627196 ] } },
{ "type": "Feature", "properties": { "name": "Holy Cross Chapel", "amenity": "place_of_worship" }, "geometry": { "type": "Point", "coordinates": [ 120.998955149999986, 14.5772393 ] } },
{ "type": "Feature", "properties": { "name": "Our Lady of Fatima Chapel", "amenity": "place_of_worship" }, "geometry": { "type": "Point", "coordinates": [ 121.000089557182719, 14.577968525359099 ] } },
{ "type": "Feature", "properties": { "name": "Mang Inasal", "amenity": "restaurant" }, "geometry": { "type": "Point", "coordinates": [ 121.012931474356336, 14.582164156093476 ] } },
{ "type": "Feature", "properties": { "name": "Noah's Ark Angel School", "amenity": "school" }, "geometry": { "type": "Point", "coordinates": [ 121.010746505348308, 14.580889028287952 ] } },
{ "type": "Feature", "properties": { "name": "Jollibee", "amenity": "fast_food" }, "geometry": { "type": "Point", "coordinates": [ 121.012792311603746, 14.581526030861433 ] } },
{ "type": "Feature", "properties": { "name": "Coramille Learning Center", "amenity": "school" }, "geometry": { "type": "Point", "coordinates": [ 121.010544979346619, 14.580201945810192 ] } },
{ "type": "Feature", "properties": { "name": "San Lorenzo Ruiz", "amenity": "place_of_worship" }, "geometry": { "type": "Point", "coordinates": [ 121.008032816387413, 14.579359196601443 ] } },
{ "type": "Feature", "properties": { "name": "Saint Francis School", "amenity": "school" }, "geometry": { "type": "Point", "coordinates": [ 121.014183709402189, 14.582165914911274 ] } },
{ "type": "Feature", "properties": { "name": "Fernando Amorsolo Elementary School", "amenity": "school" }, "geometry": { "type": "Point", "coordinates": [ 121.014096310759044, 14.583135154389327 ] } },
{ "type": "Feature", "properties": { "name": "Trinity Woman and Child Hospital", "amenity": "hospital" }, "geometry": { "type": "Point", "coordinates": [ 121.017663267406363, 14.584148168281201 ] } },
{ "type": "Feature", "properties": { "name": "Santa Ana Hospital", "amenity": "hospital" }, "geometry": { "type": "Point", "coordinates": [ 121.016258144020654, 14.58337155972921 ] } },
{ "type": "Feature", "properties": { "name": "Lina's Eatery", "amenity": "restaurant" }, "geometry": { "type": "Point", "coordinates": [ 120.981608593212528, 14.579847362967874 ] } },
{ "type": "Feature", "properties": { "name": "Plaridel Elementary School", "amenity": "school" }, "geometry": { "type": "Point", "coordinates": [ 120.981246125619251, 14.627493905603719 ] } },
{ "type": "Feature", "properties": { "name": "Jim's Pares & Mami", "amenity": "fast_food" }, "geometry": { "type": "Point", "coordinates": [ 120.98640765, 14.5725811 ] } },
{ "type": "Feature", "properties": { "name": "Myung Ga", "amenity": "restaurant" }, "geometry": { "type": "Point", "coordinates": [ 120.985180745805508, 14.572525763306821 ] } },
{ "type": "Feature", "properties": { "name": "Lau Chan Chinese Restaurant", "amenity": "restaurant" }, "geometry": { "type": "Point", "coordinates": [ 120.983885698565942, 14.572502263054401 ] } },
{ "type": "Feature", "properties": { "name": "Max's Restaurant", "amenity": "restaurant" }, "geometry": { "type": "Point", "coordinates": [ 120.98338634773657, 14.569178627683272 ] } },
{ "type": "Feature", "properties": { "name": "Shakey's", "amenity": "restaurant" }, "geometry": { "type": "Point", "coordinates": [ 120.983633371210573, 14.569297659551724 ] } },
{ "type": "Feature", "properties": { "name": "Jollibee", "amenity": "fast_food" }, "geometry": { "type": "Point", "coordinates": [ 120.988249168490327, 14.569737556345363 ] } },
{ "type": "Feature", "properties": { "name": "PALTONG Korea Town Manila", "amenity": "restaurant" }, "geometry": { "type": "Point", "coordinates": [ 120.98675980721849, 14.570714481050571 ] } },
{ "type": "Feature", "properties": { "name": "Shabuyaki", "amenity": "restaurant" }, "geometry": { "type": "Point", "coordinates": [ 120.986866410914061, 14.570776950239452 ] } },
{ "type": "Feature", "properties": { "name": "Fo Guang Shan Mabuhay Temple", "amenity": "place_of_worship" }, "geometry": { "type": "Point", "coordinates": [ 120.991904453141217, 14.560449188289709 ] } },
{ "type": "Feature", "properties": { "name": "Mang Inasal", "amenity": "fast_food" }, "geometry": { "type": "Point", "coordinates": [ 120.988297610650775, 14.576598137881621 ] } },
{ "type": "Feature", "properties": { "name": "KFC", "amenity": "fast_food" }, "geometry": { "type": "Point", "coordinates": [ 120.98663526495892, 14.579561229823975 ] } },
{ "type": "Feature", "properties": { "name": "McDonald's", "amenity": "fast_food" }, "geometry": { "type": "Point", "coordinates": [ 120.988394635504093, 14.576502752510109 ] } },
{ "type": "Feature", "properties": { "name": "BBQ Soldiers", "amenity": "restaurant" }, "geometry": { "type": "Point", "coordinates": [ 121.002767599999984, 14.5731031 ] } },
{ "type": "Feature", "properties": { "name": "Eatery", "amenity": "restaurant" }, "geometry": { "type": "Point", "coordinates": [ 121.002002483128521, 14.573578383831352 ] } },
{ "type": "Feature", "properties": { "name": "Pepay's", "amenity": "restaurant" }, "geometry": { "type": "Point", "coordinates": [ 121.000350600000019, 14.57542195 ] } },
{ "type": "Feature", "properties": { "name": "KFC", "amenity": "fast_food" }, "geometry": { "type": "Point", "coordinates": [ 120.99420123651214, 14.578327421152254 ] } },
{ "type": "Feature", "properties": { "name": "Santissima Trinidad Parish", "amenity": "place_of_worship" }, "geometry": { "type": "Point", "coordinates": [ 120.999392431684285, 14.566793191601427 ] } },
{ "type": "Feature", "properties": { "name": "Most Holy Trinity Parish Church", "amenity": "place_of_worship" }, "geometry": { "type": "Point", "coordinates": [ 121.002483558593084, 14.610587250519373 ] } },
{ "type": "Feature", "properties": { "name": "St. Francis General Hospital", "amenity": "hospital" }, "geometry": { "type": "Point", "coordinates": [ 121.00394916447884, 14.608945605804848 ] } },
{ "type": "Feature", "properties": { "name": "The Church of Jesus Christ of Latter-day Saints", "amenity": "place_of_worship" }, "geometry": { "type": "Point", "coordinates": [ 121.011877830787952, 14.605349661732584 ] } },
{ "type": "Feature", "properties": { "name": "Lokal ng Sampaloc", "amenity": "place_of_worship" }, "geometry": { "type": "Point", "coordinates": [ 121.00611998375247, 14.603744631789134 ] } },
{ "type": "Feature", "properties": { "name": "Philippine Palyul Buddhist Temple", "amenity": "place_of_worship" }, "geometry": { "type": "Point", "coordinates": [ 121.0101383, 14.60706645 ] } },
{ "type": "Feature", "properties": { "name": "Kingdom Hall of Jehovah's Witnesses", "amenity": "place_of_worship" }, "geometry": { "type": "Point", "coordinates": [ 120.984574024786014, 14.625619337163203 ] } },
{ "type": "Feature", "properties": { "name": "Simbahan ng San Jose", "amenity": "place_of_worship" }, "geometry": { "type": "Point", "coordinates": [ 120.973495531296095, 14.629286001155167 ] } },
{ "type": "Feature", "properties": { "name": "Jollibee", "amenity": "fast_food" }, "geometry": { "type": "Point", "coordinates": [ 120.974057931167351, 14.628785173094524 ] } },
{ "type": "Feature", "properties": { "name": "San Jose Manggagawa Parish", "amenity": "place_of_worship" }, "geometry": { "type": "Point", "coordinates": [ 120.978296381774499, 14.63141783179549 ] } },
{ "type": "Feature", "properties": { "name": "LapuLapu Elementary School", "amenity": "school" }, "geometry": { "type": "Point", "coordinates": [ 120.9781213, 14.6312373 ] } },
{ "type": "Feature", "properties": { "name": "Lokal ng Barrio Obrero", "amenity": "place_of_worship" }, "geometry": { "type": "Point", "coordinates": [ 120.979212100000012, 14.6343853 ] } },
{ "type": "Feature", "properties": { "name": "San Rafael Parish Church", "amenity": "place_of_worship" }, "geometry": { "type": "Point", "coordinates": [ 120.965447802707828, 14.635346538753032 ] } },
{ "type": "Feature", "properties": { "name": "Iglesia ni Cristo - Lokal ng H. Lopez Boulevard", "amenity": "place_of_worship" }, "geometry": { "type": "Point", "coordinates": [ 120.963459625488781, 14.632980613652869 ] } },
{ "type": "Feature", "properties": { "name": "Westminster High School", "amenity": "school" }, "geometry": { "type": "Point", "coordinates": [ 120.961674081855975, 14.634979369660552 ] } },
{ "type": "Feature", "properties": { "name": "Westminster Student Church of the Philippines", "amenity": "place_of_worship" }, "geometry": { "type": "Point", "coordinates": [ 120.962301599999975, 14.6339634 ] } },
{ "type": "Feature", "properties": { "name": "Balut Christian Church", "amenity": "place_of_worship" }, "geometry": { "type": "Point", "coordinates": [ 120.964421293031833, 14.63168025099594 ] } },
{ "type": "Feature", "properties": { "name": "Little Lamb", "amenity": "restaurant" }, "geometry": { "type": "Point", "coordinates": [ 120.97594545101505, 14.579654086523561 ] } },
{ "type": "Feature", "properties": { "name": "Granada Educational Foundation", "amenity": "school" }, "geometry": { "type": "Point", "coordinates": [ 120.987978264618263, 14.598725354237462 ] } },
{ "type": "Feature", "properties": { "name": "San Roque de Manila Parish", "amenity": "place_of_worship" }, "geometry": { "type": "Point", "coordinates": [ 120.9832922, 14.6235155 ] } },
{ "type": "Feature", "properties": { "name": "PUP Interfaith Ecumenical Chapel", "amenity": "place_of_worship" }, "geometry": { "type": "Point", "coordinates": [ 121.011439034441949, 14.597144334658527 ] } },
{ "type": "Feature", "properties": { "name": "Manila Cathedral", "amenity": "place_of_worship" }, "geometry": { "type": "Point", "coordinates": [ 120.973587767190935, 14.591517905510369 ] } },
{ "type": "Feature", "properties": { "name": "Unciano Paramedical General Hospital", "amenity": "hospital" }, "geometry": { "type": "Point", "coordinates": [ 121.016229900000013, 14.6007075 ] } },
{ "type": "Feature", "properties": { "name": "St. Paul School - Tondo", "amenity": "school" }, "geometry": { "type": "Point", "coordinates": [ 120.966838981418235, 14.609545198079035 ] } },
{ "type": "Feature", "properties": { "name": "Mang Inasal", "amenity": "fast_food" }, "geometry": { "type": "Point", "coordinates": [ 120.966614649999983, 14.6073473 ] } },
{ "type": "Feature", "properties": { "name": "Jollibee", "amenity": "fast_food" }, "geometry": { "type": "Point", "coordinates": [ 120.966626648901084, 14.607179189149628 ] } },
{ "type": "Feature", "properties": { "name": "Bishop Moises F. Buzon Memorial Church", "amenity": "place_of_worship" }, "geometry": { "type": "Point", "coordinates": [ 120.968585477405398, 14.609478363724941 ] } },
{ "type": "Feature", "properties": { "name": "Chowking", "amenity": "fast_food" }, "geometry": { "type": "Point", "coordinates": [ 120.966745915333732, 14.607941022097908 ] } },
{ "type": "Feature", "properties": { "name": "Kingdom Hall of Jehovah's Witnesses", "amenity": "place_of_worship" }, "geometry": { "type": "Point", "coordinates": [ 121.01820915, 14.60088425 ] } },
{ "type": "Feature", "properties": { "name": "Lola Ely's", "amenity": "fast_food" }, "geometry": { "type": "Point", "coordinates": [ 120.984493024521299, 14.61076819461692 ] } },
{ "type": "Feature", "properties": { "name": "Dakasi", "amenity": "cafe" }, "geometry": { "type": "Point", "coordinates": [ 120.986375618973497, 14.609767533817374 ] } },
{ "type": "Feature", "properties": { "name": "Food Truck Manila", "amenity": "fast_food" }, "geometry": { "type": "Point", "coordinates": [ 120.987373765183165, 14.608706405507958 ] } },
{ "type": "Feature", "properties": { "name": "McDonald's", "amenity": "fast_food" }, "geometry": { "type": "Point", "coordinates": [ 120.987579122134633, 14.608432015594575 ] } },
{ "type": "Feature", "properties": { "name": "University of Manila Basic Education Department", "amenity": "school" }, "geometry": { "type": "Point", "coordinates": [ 120.990167317078857, 14.604131395814278 ] } },
{ "type": "Feature", "properties": { "name": "San Pablo Apostol Parish Church", "amenity": "place_of_worship" }, "geometry": { "type": "Point", "coordinates": [ 120.960822105667404, 14.623150103446644 ] } },
{ "type": "Feature", "properties": { "name": "Presidential Security Group Station Hospital", "amenity": "hospital" }, "geometry": { "type": "Point", "coordinates": [ 121.000687702594533, 14.593715186647225 ] } },
{ "type": "Feature", "properties": { "name": "Santa Monica Parish", "amenity": "place_of_worship" }, "geometry": { "type": "Point", "coordinates": [ 120.972854200000015, 14.6134788 ] } },
{ "type": "Feature", "properties": { "name": "Immaculate Concepcion Parish", "amenity": "place_of_worship" }, "geometry": { "type": "Point", "coordinates": [ 120.975615640816628, 14.617600504510838 ] } },
{ "type": "Feature", "properties": { "name": "New Life Alliance Church", "amenity": "place_of_worship" }, "geometry": { "type": "Point", "coordinates": [ 121.012575014354979, 14.600327262587207 ] } },
{ "type": "Feature", "properties": { "name": "United Bethel Christian Academy", "amenity": "school" }, "geometry": { "type": "Point", "coordinates": [ 121.012247100443375, 14.603927786053461 ] } },
{ "type": "Feature", "properties": { "name": "Lokal ng Pandacan", "amenity": "place_of_worship" }, "geometry": { "type": "Point", "coordinates": [ 121.001622025818335, 14.584940980023049 ] } },
{ "type": "Feature", "properties": { "name": "San Lazaro Hospital", "amenity": "hospital" }, "geometry": { "type": "Point", "coordinates": [ 120.980718720176597, 14.613825406857694 ] } },
{ "type": "Feature", "properties": { "name": "St Maria Goretti Parish", "amenity": "place_of_worship" }, "geometry": { "type": "Point", "coordinates": [ 120.990197614989782, 14.585039071127669 ] } },
{ "type": "Feature", "properties": { "name": "The Barn", "amenity": "restaurant" }, "geometry": { "type": "Point", "coordinates": [ 120.992119753160495, 14.567602002097939 ] } },
{ "type": "Feature", "properties": { "name": "Lokal ng G. Tuazon", "amenity": "place_of_worship" }, "geometry": { "type": "Point", "coordinates": [ 121.00228305, 14.60553175 ] } },
{ "type": "Feature", "properties": { "name": "KFC", "amenity": "fast_food" }, "geometry": { "type": "Point", "coordinates": [ 120.998432720231747, 14.614388721631853 ] } },
{ "type": "Feature", "properties": { "name": "Capilla de San Roque", "amenity": "place_of_worship" }, "geometry": { "type": "Point", "coordinates": [ 121.009054637521118, 14.607494332980872 ] } },
{ "type": "Feature", "properties": { "name": "Manila Faith Assembly Of God", "amenity": "place_of_worship" }, "geometry": { "type": "Point", "coordinates": [ 120.97228925, 14.62298765 ] } },
{ "type": "Feature", "properties": { "name": "Raja Soliman Science and Technology High School", "amenity": "school" }, "geometry": { "type": "Point", "coordinates": [ 120.972695905497631, 14.597777932709542 ] } },
{ "type": "Feature", "properties": { "name": "McDonald's", "amenity": "fast_food" }, "geometry": { "type": "Point", "coordinates": [ 120.98835855, 14.60192045 ] } },
{ "type": "Feature", "properties": { "name": "Holy Family Parochial School", "amenity": "school" }, "geometry": { "type": "Point", "coordinates": [ 121.007839059923839, 14.572457261394842 ] } },
{ "type": "Feature", "properties": { "name": "Dominican School Manila", "amenity": "school" }, "geometry": { "type": "Point", "coordinates": [ 120.99123181141276, 14.612003253975967 ] } },
{ "type": "Feature", "properties": { "name": "Bing Bong Kambingan", "amenity": "restaurant" }, "geometry": { "type": "Point", "coordinates": [ 120.995727002791099, 14.620520803038167 ] } },
{ "type": "Feature", "properties": { "name": "Andoks", "amenity": "fast_food" }, "geometry": { "type": "Point", "coordinates": [ 121.02326045, 14.58987435 ] } },
{ "type": "Feature", "properties": { "name": "Seventh Day Adventist", "amenity": "place_of_worship" }, "geometry": { "type": "Point", "coordinates": [ 121.014428723060647, 14.58057939449653 ] } },
{ "type": "Feature", "properties": { "name": "Jollibee", "amenity": "fast_food" }, "geometry": { "type": "Point", "coordinates": [ 120.991992840164002, 14.570118926900376 ] } },
{ "type": "Feature", "properties": { "name": "Antonio J. Villegas Vocational High School", "amenity": "school" }, "geometry": { "type": "Point", "coordinates": [ 120.961223825974187, 14.623508491846909 ] } },
{ "type": "Feature", "properties": { "name": "Lokal ng Binondo", "amenity": "place_of_worship" }, "geometry": { "type": "Point", "coordinates": [ 120.960954726519702, 14.598010149723834 ] } },
{ "type": "Feature", "properties": { "name": "Jose Abad Santos High School", "amenity": "school" }, "geometry": { "type": "Point", "coordinates": [ 120.972968667366288, 14.597057864973406 ] } },
{ "type": "Feature", "properties": { "name": "Lakan Dula High School", "amenity": "school" }, "geometry": { "type": "Point", "coordinates": [ 120.973621922441623, 14.625064597650027 ] } },
{ "type": "Feature", "properties": { "name": "McDonald's", "amenity": "fast_food" }, "geometry": { "type": "Point", "coordinates": [ 121.023209100383426, 14.589404366507161 ] } },
{ "type": "Feature", "properties": { "name": "Saint Jude Hospital and Medical Center", "amenity": "hospital" }, "geometry": { "type": "Point", "coordinates": [ 120.989399632119458, 14.615805363743435 ] } },
{ "type": "Feature", "properties": { "name": "Saint Anthony School", "amenity": "school" }, "geometry": { "type": "Point", "coordinates": [ 120.995434977834506, 14.571281939680745 ] } },
{ "type": "Feature", "properties": { "name": "St. Mary's Academy of Manila", "amenity": "school" }, "geometry": { "type": "Point", "coordinates": [ 120.978545756715349, 14.610754992864894 ] } },
{ "type": "Feature", "properties": { "name": "Batangas Dulo Chapel", "amenity": "place_of_worship" }, "geometry": { "type": "Point", "coordinates": [ 120.975105838916292, 14.621304076688389 ] } },
{ "type": "Feature", "properties": { "name": "Nuestra Señora de Salvacion Parish", "amenity": "place_of_worship" }, "geometry": { "type": "Point", "coordinates": [ 121.009229925958806, 14.599793030736247 ] } },
{ "type": "Feature", "properties": { "name": "Father Pierre Tritz Institute - ERDA Tech", "amenity": "school" }, "geometry": { "type": "Point", "coordinates": [ 121.01303973014268, 14.590566886623749 ] } },
{ "type": "Feature", "properties": { "name": "Beata Elementary School", "amenity": "school" }, "geometry": { "type": "Point", "coordinates": [ 121.013024905861812, 14.590123072672419 ] } },
{ "type": "Feature", "properties": { "name": "Our Lady of Fatima Parish", "amenity": "place_of_worship" }, "geometry": { "type": "Point", "coordinates": [ 121.019774269351316, 14.59181043763655 ] } },
{ "type": "Feature", "properties": { "name": "San Pablo Apostol Parish", "amenity": "place_of_worship" }, "geometry": { "type": "Point", "coordinates": [ 120.965112737015616, 14.624426215628189 ] } },
{ "type": "Feature", "properties": { "name": "Don Bosco", "amenity": "school" }, "geometry": { "type": "Point", "coordinates": [ 120.960932234219825, 14.615740276607108 ] } },
{ "type": "Feature", "properties": { "name": "Tondo Medical Center", "amenity": "hospital" }, "geometry": { "type": "Point", "coordinates": [ 120.963040274733146, 14.635037032333898 ] } },
{ "type": "Feature", "properties": { "name": "Lokal ng Solis", "amenity": "place_of_worship" }, "geometry": { "type": "Point", "coordinates": [ 120.980161876318064, 14.627057505642655 ] } },
{ "type": "Feature", "properties": { "name": "Knox United Methodist Church", "amenity": "place_of_worship" }, "geometry": { "type": "Point", "coordinates": [ 120.982553273457043, 14.606291034390903 ] } },
{ "type": "Feature", "properties": { "name": "Jollibee", "amenity": "fast_food" }, "geometry": { "type": "Point", "coordinates": [ 120.981207049770489, 14.582478513541869 ] } },
{ "type": "Feature", "properties": { "name": "Parokya ng Ina ng Laging Saklolo", "amenity": "place_of_worship" }, "geometry": { "type": "Point", "coordinates": [ 121.012053570587256, 14.586801239416232 ] } },
{ "type": "Feature", "properties": { "name": "San Vicente De Paul Church", "amenity": "place_of_worship" }, "geometry": { "type": "Point", "coordinates": [ 120.985405771937025, 14.585202052527835 ] } },
{ "type": "Feature", "properties": { "name": "Santissimo Rosario Parish Church", "amenity": "place_of_worship" }, "geometry": { "type": "Point", "coordinates": [ 120.988143333077247, 14.609346495315455 ] } },
{ "type": "Feature", "properties": { "name": "United Bethel Church", "amenity": "place_of_worship" }, "geometry": { "type": "Point", "coordinates": [ 121.012216274815103, 14.602844466365552 ] } },
{ "type": "Feature", "properties": { "name": "Jollibee", "amenity": "fast_food" }, "geometry": { "type": "Point", "coordinates": [ 120.974017371595608, 14.593882087853663 ] } },
{ "type": "Feature", "properties": { "name": "Beanleaf", "amenity": "cafe" }, "geometry": { "type": "Point", "coordinates": [ 120.972202314410239, 14.592755352705064 ] } },
{ "type": "Feature", "properties": { "name": "Teresa Chapel", "amenity": "place_of_worship" }, "geometry": { "type": "Point", "coordinates": [ 121.012896405708318, 14.600516266101096 ] } },
{ "type": "Feature", "properties": { "name": "Saint Pius X Parochial School", "amenity": "school" }, "geometry": { "type": "Point", "coordinates": [ 121.000371951032548, 14.576902355120074 ] } },
{ "type": "Feature", "properties": { "name": "Our Lady of the Abandoned Parish", "amenity": "place_of_worship" }, "geometry": { "type": "Point", "coordinates": [ 121.013725843603254, 14.581977968974345 ] } },
{ "type": "Feature", "properties": { "name": "Melchora Aquino Elementary School", "amenity": "school" }, "geometry": { "type": "Point", "coordinates": [ 120.977058577932695, 14.626841615510809 ] } },
{ "type": "Feature", "properties": { "name": "A.C. Herrera Elementary School", "amenity": "school" }, "geometry": { "type": "Point", "coordinates": [ 120.980478299725959, 14.634135585157562 ] } },
{ "type": "Feature", "properties": { "name": "Juan and Apolinaria Teodoro Memorial Church", "amenity": "place_of_worship" }, "geometry": { "type": "Point", "coordinates": [ 120.981018021352938, 14.634544085556406 ] } },
{ "type": "Feature", "properties": { "name": "Seng Guan Temple", "amenity": "place_of_worship" }, "geometry": { "type": "Point", "coordinates": [ 120.97476429351758, 14.607643955748546 ] } },
{ "type": "Feature", "properties": { "name": "Metropolitan Baptist Church", "amenity": "place_of_worship" }, "geometry": { "type": "Point", "coordinates": [ 120.998740383548551, 14.584730100806299 ] } },
{ "type": "Feature", "properties": { "name": "Bagong Barangay Elementary School", "amenity": "school" }, "geometry": { "type": "Point", "coordinates": [ 121.00065029519746, 14.586367942096437 ] } },
{ "type": "Feature", "properties": { "name": "Lokal ng Syquia", "amenity": "place_of_worship" }, "geometry": { "type": "Point", "coordinates": [ 121.0149436, 14.57970065 ] } },
{ "type": "Feature", "properties": { "name": "St. Scholastica's College Chapel", "amenity": "place_of_worship" }, "geometry": { "type": "Point", "coordinates": [ 120.996188743028725, 14.563445801343153 ] } },
{ "type": "Feature", "properties": { "name": "Dunkin' Donuts", "amenity": "fast_food" }, "geometry": { "type": "Point", "coordinates": [ 120.994828129110886, 14.571288471075766 ] } },
{ "type": "Feature", "properties": { "name": "Tapa Supreme", "amenity": "restaurant" }, "geometry": { "type": "Point", "coordinates": [ 120.99423795, 14.57265175 ] } },
{ "type": "Feature", "properties": { "name": "Jollibee", "amenity": "fast_food" }, "geometry": { "type": "Point", "coordinates": [ 120.992117138889853, 14.570307848708252 ] } },
{ "type": "Feature", "properties": { "name": "Jollibee", "amenity": "fast_food" }, "geometry": { "type": "Point", "coordinates": [ 120.993302480884935, 14.567206033037134 ] } },
{ "type": "Feature", "properties": { "name": "Max's Restaurant", "amenity": "restaurant" }, "geometry": { "type": "Point", "coordinates": [ 120.984217917745397, 14.558229552353097 ] } },
{ "type": "Feature", "properties": { "name": "R. Almario Elementary School – Parola Annex", "amenity": "school" }, "geometry": { "type": "Point", "coordinates": [ 120.955655806424886, 14.598122707823336 ] } },
{ "type": "Feature", "properties": { "name": "Elpidio Quirino High School", "amenity": "school" }, "geometry": { "type": "Point", "coordinates": [ 121.017453117046941, 14.589857895336444 ] } },
{ "type": "Feature", "properties": { "name": "Malayan High School of Science", "amenity": "school" }, "geometry": { "type": "Point", "coordinates": [ 120.998709715896439, 14.591738054281588 ] } },
{ "type": "Feature", "properties": { "name": "Maranatha Christian Academy", "amenity": "school" }, "geometry": { "type": "Point", "coordinates": [ 121.003926447352285, 14.59029346233984 ] } },
{ "type": "Feature", "properties": { "name": "General Maximo Hizon Elementary School", "amenity": "school" }, "geometry": { "type": "Point", "coordinates": [ 120.976755222419612, 14.611289049245457 ] } },
{ "type": "Feature", "properties": { "name": "General Miguel Malvar Elementary School", "amenity": "school" }, "geometry": { "type": "Point", "coordinates": [ 121.009734763793631, 14.606223666395184 ] } },
{ "type": "Feature", "properties": { "name": "Legarda Elementary School", "amenity": "school" }, "geometry": { "type": "Point", "coordinates": [ 120.998805545369379, 14.612026506950896 ] } },
{ "type": "Feature", "properties": { "name": "Ang Dating Daan", "amenity": "place_of_worship" }, "geometry": { "type": "Point", "coordinates": [ 121.021895798284632, 14.588245916413499 ] } },
{ "type": "Feature", "properties": { "name": "McDonald's", "amenity": "fast_food" }, "geometry": { "type": "Point", "coordinates": [ 120.993150173951008, 14.602200857007752 ] } },
{ "type": "Feature", "properties": { "name": "Felipe G. Calderon Integrated School", "amenity": "school" }, "geometry": { "type": "Point", "coordinates": [ 120.97883908470429, 14.631676477958147 ] } },
{ "type": "Feature", "properties": { "name": "President Sergio Osmeña, Sr. High School", "amenity": "school" }, "geometry": { "type": "Point", "coordinates": [ 120.972917085490252, 14.628501025001874 ] } },
{ "type": "Feature", "properties": { "name": "Barrio Obrero Elementary School", "amenity": "school" }, "geometry": { "type": "Point", "coordinates": [ 120.978507107131549, 14.635368017414974 ] } },
{ "type": "Feature", "properties": { "name": "Ygeia Medical Center, Inc.", "amenity": "hospital" }, "geometry": { "type": "Point", "coordinates": [ 121.001682100000011, 14.5880423 ] } },
{ "type": "Feature", "properties": { "name": "Ospital ng Tondo", "amenity": "hospital" }, "geometry": { "type": "Point", "coordinates": [ 120.9783059, 14.62599475 ] } },
{ "type": "Feature", "properties": { "name": "Bridge to Hope", "amenity": "school" }, "geometry": { "type": "Point", "coordinates": [ 120.960203246719786, 14.63020377105282 ] } },
{ "type": "Feature", "properties": { "name": "Arsenio H. Lacson Elementary School", "amenity": "school" }, "geometry": { "type": "Point", "coordinates": [ 120.967495742982237, 14.628942647337205 ] } },
{ "type": "Feature", "properties": { "name": "Antonio Luna Elementary School", "amenity": "school" }, "geometry": { "type": "Point", "coordinates": [ 120.981936895287163, 14.626600040772317 ] } },
{ "type": "Feature", "properties": { "name": "Pedro Guevara Elementary School", "amenity": "school" }, "geometry": { "type": "Point", "coordinates": [ 120.971108344509943, 14.597397467200208 ] } },
{ "type": "Feature", "properties": { "name": "Pearl of Great Price Chapel", "amenity": "place_of_worship" }, "geometry": { "type": "Point", "coordinates": [ 120.993795816297435, 14.56484684001073 ] } },
{ "type": "Feature", "properties": { "name": "Lakan Dula Elementary School", "amenity": "school" }, "geometry": { "type": "Point", "coordinates": [ 120.974583008747942, 14.626125746059159 ] } },
{ "type": "Feature", "properties": { "name": "Francisco Benitez Elementary School", "amenity": "school" }, "geometry": { "type": "Point", "coordinates": [ 120.97389360840738, 14.626181683281798 ] } },
{ "type": "Feature", "properties": { "name": "Jollibee", "amenity": "fast_food" }, "geometry": { "type": "Point", "coordinates": [ 120.96200764514866, 14.602201160003 ] } },
{ "type": "Feature", "properties": { "name": "Saint Joseph School", "amenity": "school" }, "geometry": { "type": "Point", "coordinates": [ 120.973773344795347, 14.629458504635801 ] } },
{ "type": "Feature", "properties": { "name": "Regina Apostolorum Academy", "amenity": "school" }, "geometry": { "type": "Point", "coordinates": [ 121.015133213477284, 14.59733730928475 ] } },
{ "type": "Feature", "properties": { "name": "Metropolitan Medical Center", "amenity": "hospital" }, "geometry": { "type": "Point", "coordinates": [ 120.978453708318199, 14.609566983912295 ] } },
{ "type": "Feature", "properties": { "name": "Causeway Seafood Restaurant", "amenity": "restaurant" }, "geometry": { "type": "Point", "coordinates": [ 120.978503758432055, 14.607645412494037 ] } },
{ "type": "Feature", "properties": { "name": "Manila Buddha Temple", "amenity": "place_of_worship" }, "geometry": { "type": "Point", "coordinates": [ 120.977143538882942, 14.606398628013295 ] } },
{ "type": "Feature", "properties": { "name": "靈光寺", "amenity": "place_of_worship" }, "geometry": { "type": "Point", "coordinates": [ 120.970940009247698, 14.598193442336717 ] } },
{ "type": "Feature", "properties": { "name": "Philippine Sun Yat Sen High School", "amenity": "school" }, "geometry": { "type": "Point", "coordinates": [ 120.97927880037679, 14.602111451705159 ] } },
{ "type": "Feature", "properties": { "name": "The Church in Manila Meeting Hall No.1", "amenity": "place_of_worship" }, "geometry": { "type": "Point", "coordinates": [ 120.9799274897928, 14.601200813356423 ] } },
{ "type": "Feature", "properties": { "name": "Mahal na Krus", "amenity": "place_of_worship" }, "geometry": { "type": "Point", "coordinates": [ 120.982827098955937, 14.609150697529738 ] } },
{ "type": "Feature", "properties": { "name": "Antonio Regidor Elementary School", "amenity": "school" }, "geometry": { "type": "Point", "coordinates": [ 120.979430491319789, 14.6072336843012 ] } },
{ "type": "Feature", "properties": { "name": "Mang Inasal", "amenity": "fast_food" }, "geometry": { "type": "Point", "coordinates": [ 120.981826460097523, 14.605017773578329 ] } },
{ "type": "Feature", "properties": { "name": "Golden Fortune", "amenity": "restaurant" }, "geometry": { "type": "Point", "coordinates": [ 120.982961070737929, 14.582579628897134 ] } },
{ "type": "Feature", "properties": { "name": "Immaculate Conception Academy of Manila", "amenity": "school" }, "geometry": { "type": "Point", "coordinates": [ 120.967888814773943, 14.62488999644544 ] } },
{ "type": "Feature", "properties": { "name": "Bistro Remedios", "amenity": "restaurant" }, "geometry": { "type": "Point", "coordinates": [ 120.986107535878119, 14.569793961928593 ] } },
{ "type": "Feature", "properties": { "name": "Peri-Peri", "amenity": "restaurant" }, "geometry": { "type": "Point", "coordinates": [ 120.98377753348241, 14.569403065013466 ] } },
{ "type": "Feature", "properties": { "name": "McDonald's", "amenity": "fast_food" }, "geometry": { "type": "Point", "coordinates": [ 120.97283317823144, 14.603538054219506 ] } },
{ "type": "Feature", "properties": { "name": "Chapel of the Most Blessed Sacrament", "amenity": "place_of_worship" }, "geometry": { "type": "Point", "coordinates": [ 120.993754587189244, 14.563753049494879 ] } },
{ "type": "Feature", "properties": { "name": "Manila Cathedral School", "amenity": "school" }, "geometry": { "type": "Point", "coordinates": [ 120.975284792195893, 14.618000862026637 ] } },
{ "type": "Feature", "properties": { "name": "San Rafael Parochial School", "amenity": "school" }, "geometry": { "type": "Point", "coordinates": [ 120.965234466666672, 14.635456566666665 ] } },
{ "type": "Feature", "properties": { "name": "Jose Abad Santos Memorial School", "amenity": "school" }, "geometry": { "type": "Point", "coordinates": [ 120.990672983473615, 14.570624861354881 ] } },
{ "type": "Feature", "properties": { "name": "Kingdom Hall of Jehovah's Witnesses", "amenity": "place_of_worship" }, "geometry": { "type": "Point", "coordinates": [ 120.966146900000012, 14.61421215 ] } },
{ "type": "Feature", "properties": { "name": "PCU Union High School of Manila", "amenity": "school" }, "geometry": { "type": "Point", "coordinates": [ 120.987854964346212, 14.574373929816044 ] } },
{ "type": "Feature", "properties": { "name": "PCU Union Elementary School", "amenity": "school" }, "geometry": { "type": "Point", "coordinates": [ 120.98728611774149, 14.574140807021879 ] } },
{ "type": "Feature", "properties": { "name": "The Ellinwood Christian School, Inc.", "amenity": "school" }, "geometry": { "type": "Point", "coordinates": [ 120.987715637289185, 14.574796439519989 ] } },
{ "type": "Feature", "properties": { "name": "Cathedral of the Holy Child", "amenity": "place_of_worship" }, "geometry": { "type": "Point", "coordinates": [ 120.988124501878715, 14.577166674313631 ] } },
{ "type": "Feature", "properties": { "name": "First Church of Christ Scientist", "amenity": "place_of_worship" }, "geometry": { "type": "Point", "coordinates": [ 120.988983524410941, 14.577091234985419 ] } },
{ "type": "Feature", "properties": { "name": "Angelace Food Haus", "amenity": "restaurant" }, "geometry": { "type": "Point", "coordinates": [ 120.985234214109667, 14.60023482436562 ] } },
{ "type": "Feature", "properties": { "name": "Philippine Chung Hua School", "amenity": "school" }, "geometry": { "type": "Point", "coordinates": [ 121.015998200875799, 14.598494156014794 ] } },
{ "type": "Feature", "properties": { "name": "Kambal na Krus Chapel", "amenity": "place_of_worship" }, "geometry": { "type": "Point", "coordinates": [ 120.971391752141926, 14.620486290191717 ] } },
{ "type": "Feature", "properties": { "name": "Barangay 859 Chapel", "amenity": "place_of_worship" }, "geometry": { "type": "Point", "coordinates": [ 121.003754172141598, 14.588015113430661 ] } },
{ "type": "Feature", "properties": { "name": "St. Peter the Apostle School", "amenity": "school" }, "geometry": { "type": "Point", "coordinates": [ 120.996732697445793, 14.583456490388784 ] } },
{ "type": "Feature", "properties": { "name": "McDonald's", "amenity": "fast_food" }, "geometry": { "type": "Point", "coordinates": [ 120.976743375178273, 14.612706571064058 ] } },
{ "type": "Feature", "properties": { "name": "McDonald's", "amenity": "fast_food" }, "geometry": { "type": "Point", "coordinates": [ 120.98057073084496, 14.631350394788862 ] } },
{ "type": "Feature", "properties": { "name": "E.A. Remigio Elementary School", "amenity": "school" }, "geometry": { "type": "Point", "coordinates": [ 120.984395303225099, 14.629215572166988 ] } },
{ "type": "Feature", "properties": { "name": "Cecilio Apostol Elementary School", "amenity": "school" }, "geometry": { "type": "Point", "coordinates": [ 120.984430813536335, 14.619151867121969 ] } },
{ "type": "Feature", "properties": { "name": "President Corazon C. Aquino Vocational High School", "amenity": "school" }, "geometry": { "type": "Point", "coordinates": [ 120.959264790832606, 14.590571879322528 ] } },
{ "type": "Feature", "properties": { "name": "Senator Benigno S. Aquino Jr. Elementary School", "amenity": "school" }, "geometry": { "type": "Point", "coordinates": [ 120.957175029120563, 14.591624260467631 ] } },
{ "type": "Feature", "properties": { "name": "President Corazon Aquino High School", "amenity": "school" }, "geometry": { "type": "Point", "coordinates": [ 120.957516674888794, 14.59097354668601 ] } },
{ "type": "Feature", "properties": { "name": "Marcela Agoncillo Elementary School", "amenity": "school" }, "geometry": { "type": "Point", "coordinates": [ 120.969973399999986, 14.5974858 ] } },
{ "type": "Feature", "properties": { "name": "San Fernando de Dilao Parish", "amenity": "place_of_worship" }, "geometry": { "type": "Point", "coordinates": [ 120.994545223726192, 14.579377854757913 ] } },
{ "type": "Feature", "properties": { "name": "Dunkin'", "amenity": "fast_food" }, "geometry": { "type": "Point", "coordinates": [ 120.972354649999986, 14.6038008 ] } },
{ "type": "Feature", "properties": { "name": "Our Lady of Peace and Good Voyage", "amenity": "place_of_worship" }, "geometry": { "type": "Point", "coordinates": [ 120.9652526, 14.60121265 ] } },
{ "type": "Feature", "properties": { "name": "Pedro Pelaez Elementary School", "amenity": "school" }, "geometry": { "type": "Point", "coordinates": [ 121.006544485076034, 14.604271823949844 ] } },
{ "type": "Feature", "properties": { "name": "Global Gleam Montessori Inc.", "amenity": "school" }, "geometry": { "type": "Point", "coordinates": [ 121.008467968834537, 14.580346172572897 ] } },
{ "type": "Feature", "properties": { "name": "Jaime Cardinal Sin Learning Center", "amenity": "school" }, "geometry": { "type": "Point", "coordinates": [ 121.011808081008894, 14.587273275007327 ] } },
{ "type": "Feature", "properties": { "name": "Doctor Benigno Aldana Elementary School", "amenity": "school" }, "geometry": { "type": "Point", "coordinates": [ 121.0022889, 14.60573375 ] } },
{ "type": "Feature", "properties": { "name": "San Roque Chapel", "amenity": "place_of_worship" }, "geometry": { "type": "Point", "coordinates": [ 120.963955840967543, 14.630988467522757 ] } },
{ "type": "Feature", "properties": { "name": "McDonald's", "amenity": "fast_food" }, "geometry": { "type": "Point", "coordinates": [ 120.979339272765088, 14.579953740310154 ] } },
{ "type": "Feature", "properties": { "name": "Polytechnic University of the Philippines M.H. Del Pilar Campus", "amenity": "school" }, "geometry": { "type": "Point", "coordinates": [ 121.001859903081041, 14.60087312469426 ] } },
{ "type": "Feature", "properties": { "name": "Jollibee", "amenity": "fast_food" }, "geometry": { "type": "Point", "coordinates": [ 120.980274897512416, 14.632180471706677 ] } },
{ "type": "Feature", "properties": { "name": "President Corazon C. Aquino General Hospital", "amenity": "hospital" }, "geometry": { "type": "Point", "coordinates": [ 120.957219027274377, 14.59143592291429 ] } },
{ "type": "Feature", "properties": { "name": "Sto. Niño de Baseco Parish", "amenity": "place_of_worship" }, "geometry": { "type": "Point", "coordinates": [ 120.956948637135838, 14.591092536132575 ] } },
{ "type": "Feature", "properties": { "name": "Andok's Litson", "amenity": "restaurant" }, "geometry": { "type": "Point", "coordinates": [ 121.004199394614517, 14.592647529229074 ] } },
{ "type": "Feature", "properties": { "name": "Baliwag Lechon Manok", "amenity": "restaurant" }, "geometry": { "type": "Point", "coordinates": [ 121.004396992377735, 14.592600365646545 ] } },
{ "type": "Feature", "properties": { "name": "Saint Joseph School of Pandacan", "amenity": "school" }, "geometry": { "type": "Point", "coordinates": [ 121.004494345939094, 14.592864676876971 ] } },
{ "type": "Feature", "properties": { "name": "Senior Pedro", "amenity": "fast_food" }, "geometry": { "type": "Point", "coordinates": [ 121.0120171484633, 14.575461009249478 ] } },
{ "type": "Feature", "properties": { "name": "Manila Technical, Vocational, and Entrepreneurial School", "amenity": "school" }, "geometry": { "type": "Point", "coordinates": [ 120.970026128396725, 14.629002165448734 ] } },
{ "type": "Feature", "properties": { "name": "National Center for Geriatric Health", "amenity": "hospital" }, "geometry": { "type": "Point", "coordinates": [ 120.991177764904165, 14.591808461483465 ] } },
{ "type": "Feature", "properties": { "name": "M. Roxas de Ayala Elementary School", "amenity": "school" }, "geometry": { "type": "Point", "coordinates": [ 121.006782612433184, 14.576725727090416 ] } },
{ "type": "Feature", "properties": { "name": "Dexter Pizza-Sisay's", "amenity": "restaurant" }, "geometry": { "type": "Point", "coordinates": [ 120.974403434342932, 14.591489504334657 ] } },
{ "type": "Feature", "properties": { "name": "Mandarin Sky Seafood Restaurant", "amenity": "restaurant" }, "geometry": { "type": "Point", "coordinates": [ 120.9731104891803, 14.609756472309842 ] } },
{ "type": "Feature", "properties": { "name": "Jollibee - Rizal Avenue", "amenity": "fast_food" }, "geometry": { "type": "Point", "coordinates": [ 120.981669922910157, 14.606035539499073 ] } },
{ "type": "Feature", "properties": { "name": "Dr. Jose Fabella Memorial Hospital", "amenity": "hospital" }, "geometry": { "type": "Point", "coordinates": [ 120.980479165789333, 14.61572574157127 ] } },
{ "type": "Feature", "properties": { "name": "McDonald's", "amenity": "fast_food" }, "geometry": { "type": "Point", "coordinates": [ 120.987169526682806, 14.565632113560612 ] } }
]
}
